{
  "type": "FeatureCollection",
  "name": "mumbai_buildings",
  "crs": { "type": "name", "properties": { "name": "urn:ogc:def:crs:OGC:1.3:CRS84" } },
  "features": [
    {
      "type": "Feature",
      "properties": { "id": "bldg-1", "name": "BKC Diamond Bourse", "height": 65, "levels": 16, "type": "commercial" },
      "geometry": { "type": "Polygon", "coordinates": [[[72.8640, 19.0620], [72.8665, 19.0620], [72.8665, 19.0645], [72.8640, 19.0645], [72.8640, 19.0620]]] }
    },
    {
      "type": "Feature",
      "properties": { "id": "bldg-2", "name": "BKC Financial Tower A", "height": 95, "levels": 24, "type": "commercial" },
      "geometry": { "type": "Polygon", "coordinates": [[[72.8680, 19.0630], [72.8710, 19.0630], [72.8710, 19.0660], [72.8680, 19.0660], [72.8680, 19.0630]]] }
    },
    {
      "type": "Feature",
      "properties": { "id": "bldg-3", "name": "BKC Central Hub", "height": 80, "levels": 20, "type": "commercial" },
      "geometry": { "type": "Polygon", "coordinates": [[[72.8720, 19.0615], [72.8750, 19.0615], [72.8750, 19.0645], [72.8720, 19.0645], [72.8720, 19.0615]]] }
    },
    {
      "type": "Feature",
      "properties": { "id": "bldg-4", "name": "AirQ Swarm Ground Station Hangar", "height": 18, "levels": 3, "type": "avionics" },
      "geometry": { "type": "Polygon", "coordinates": [[[72.8765, 19.0750], [72.8790, 19.0750], [72.8790, 19.0770], [72.8765, 19.0770], [72.8765, 19.0750]]] }
    },
    {
      "type": "Feature",
      "properties": { "id": "bldg-5", "name": "Kurla West Industrial Complex", "height": 35, "levels": 8, "type": "industrial" },
      "geometry": { "type": "Polygon", "coordinates": [[[72.8820, 19.0720], [72.8855, 19.0720], [72.8855, 19.0755], [72.8820, 19.0755], [72.8820, 19.0720]]] }
    },
    {
      "type": "Feature",
      "properties": { "id": "bldg-6", "name": "Vidyavihar Tech Park", "height": 55, "levels": 14, "type": "commercial" },
      "geometry": { "type": "Polygon", "coordinates": [[[72.8900, 19.0790], [72.8935, 19.0790], [72.8935, 19.0825], [72.8900, 19.0825], [72.8900, 19.0790]]] }
    },
    {
      "type": "Feature",
      "properties": { "id": "bldg-7", "name": "Santa Cruz Aviation Radar", "height": 45, "levels": 10, "type": "infrastructure" },
      "geometry": { "type": "Polygon", "coordinates": [[[72.8550, 19.0880], [72.8580, 19.0880], [72.8580, 19.0910], [72.8550, 19.0910], [72.8550, 19.0880]]] }
    },
    {
      "type": "Feature",
      "properties": { "id": "bldg-8", "name": "Western Express Hub One", "height": 110, "levels": 28, "type": "commercial" },
      "geometry": { "type": "Polygon", "coordinates": [[[72.8520, 19.0980], [72.8555, 19.0980], [72.8555, 19.1020], [72.8520, 19.1020], [72.8520, 19.0980]]] }
    },
    {
      "type": "Feature",
      "properties": { "id": "bldg-9", "name": "Chembur East Logistics Depot", "height": 28, "levels": 6, "type": "industrial" },
      "geometry": { "type": "Polygon", "coordinates": [[[72.8950, 19.0520], [72.8990, 19.0520], [72.8990, 19.0560], [72.8950, 19.0560], [72.8950, 19.0520]]] }
    },
    {
      "type": "Feature",
      "properties": { "id": "bldg-10", "name": "Sion Tech Cluster", "height": 72, "levels": 18, "type": "commercial" },
      "geometry": { "type": "Polygon", "coordinates": [[[72.8620, 19.0430], [72.8655, 19.0430], [72.8655, 19.0465], [72.8620, 19.0465], [72.8620, 19.0430]]] }
    },
    {
      "type": "Feature",
      "properties": { "id": "bldg-11", "name": "Dharavi Redevelopment Sector", "height": 40, "levels": 11, "type": "residential" },
      "geometry": { "type": "Polygon", "coordinates": [[[72.8530, 19.0400], [72.8570, 19.0400], [72.8570, 19.0440], [72.8530, 19.0440], [72.8530, 19.0400]]] }
    },
    {
      "type": "Feature",
      "properties": { "id": "bldg-12", "name": "Ghatkopar High-Rise Tower", "height": 88, "levels": 22, "type": "residential" },
      "geometry": { "type": "Polygon", "coordinates": [[[72.9050, 19.0880], [72.9085, 19.0880], [72.9085, 19.0915], [72.9050, 19.0915], [72.9050, 19.0880]]] }
    }
  ]
}
